GSAT0101 (GALILEO-PFM)  
1 37846U 11060A   26031.17401733 -.00000101  00000+0  00000+0 0  9995
2 37846  57.0394 345.4798 0003785 342.0012  17.9687  1.70475518 88780
GSAT0102 (GALILEO-FM2)  
1 37847U 11060B   26028.17191353 -.00000088  00000+0  00000+0 0  9990
2 37847  57.0412 345.5616 0005498 327.3528  35.6656  1.70475712 88748
GSAT0103 (GALILEO-FM3)  
1 38857U 12055A   26031.80100445 -.00000022  00000+0  00000+0 0  9991
2 38857  55.7195 105.2900 0004408 278.9692  81.0319  1.70473281 82680
GSAT0201 (GALILEO 5)    
1 40128U 14050A   26028.81965919 -.00000008  00000+0  00000+0 0  9998
2 40128  49.0237 279.1402 1653059 174.0427 188.2485  1.85519698 75731
GSAT0202 (GALILEO 6)    
1 40129U 14050B   26027.99775515 -.00000008  00000+0  00000+0 0  9998
2 40129  49.0402 278.2580 1653700 174.7431 187.2862  1.85520465 77888
GSAT0203 (GALILEO 7)    
1 40544U 15017A   26029.77887734 -.00000096  00000+0  00000+0 0  9995
2 40544  56.8330 345.3711 0005883 286.7119  73.2094  1.70475545 66843
GSAT0204 (GALILEO 8)    
1 40545U 15017B   26029.44785682 -.00000094  00000+0  00000+0 0  9997
2 40545  56.8397 345.3980 0005348 277.5490  82.3770  1.70475161 29880
GSAT0205 (GALILEO 9)    
1 40889U 15045A   26003.99326098  .00000062  00000+0  00000+0 0  9997
2 40889  54.9968 226.1424 0006353  44.5343 315.6036  1.70473089 64219
GSAT0206 (GALILEO 10)   
1 40890U 15045B   26030.61013385  .00000075  00000+0  00000+0 0  9994
2 40890  54.9888 225.4008 0004297  48.3894 311.6781  1.70473330 64694
GSAT0209 (GALILEO 12)   
1 41174U 15079A   26030.19160468 -.00000027  00000+0  00000+0 0  9993
2 41174  55.7391 105.0491 0003694 326.2571  33.7611  1.70474516 62427
GSAT0208 (GALILEO 11)   
1 41175U 15079B   26031.58497980 -.00000022  00000+0  00000+0 0  9995
2 41175  55.7383 105.0079 0003207 326.0394  33.9902  1.70474389 62863
GSAT0211 (GALILEO 14)   
1 41549U 16030A   26029.94932291  .00000081  00000+0  00000+0 0  9998
2 41549  55.1388 225.4945 0004066  27.1098 332.9464  1.70473440 60310
GSAT0210 (GALILEO 13)   
1 41550U 16030B   26032.55293652  .00000056  00000+0  00000+0 0  9994
2 41550  55.1373 225.4208 0000790 177.0901 182.9255  1.70473755 60350
GSAT0207 (GALILEO 15)   
1 41859U 16069A   26031.07148286 -.00000025  00000+0  00000+0 0  9993
2 41859  55.4094 104.8824 0004010 308.3923  51.6185  1.70474411 57069
GSAT0212 (GALILEO 16)   
1 41860U 16069B   26032.68483895 -.00000019  00000+0  00000+0 0  9994
2 41860  55.4080 104.8328 0002754 343.6767  16.3713  1.70474658 57345
GSAT0213 (GALILEO 17)   
1 41861U 16069C   26032.46574104 -.00000020  00000+0  00000+0 0  9997
2 41861  55.4103 104.8466 0004378 286.8241  73.1834  1.70474953 57202
GSAT0214 (GALILEO 18)   
1 41862U 16069D   26030.85201895 -.00000025  00000+0  00000+0 0  9998
2 41862  55.4077 104.8843 0003230 291.3477  68.6631  1.70474819 57306
